STARLINK - 2019-029M               
1 44246U 19029M   19146.90733063  .00001795  00000-0  52455-4 0  9990
2 44246  52.9982 162.0048 0001495 185.0180 289.5475 15.41064734   487